[{"OBJECT_NAME":"STARLINK-5495","OBJECT_ID":"2023-021H","EPOCH":"2026-03-09T16:57:15.087168","MEAN_MOTION":14.98345366,"ECCENTRICITY":0.00035922,"INCLINATION":70.0007,"RA_OF_ASC_NODE":184.4286,"ARG_OF_PERICENTER":276.1302,"MEAN_ANOMALY":83.9448,"EPHEMERIS_TYPE":0,"CLASSIFICATION_TYPE":"U","NORAD_CAT_ID":55635,"ELEMENT_SET_NO":999,"REV_AT_EPOCH":16879,"BSTAR":1.6539935e-5,"MEAN_MOTION_DOT":1.04e-6,"MEAN_MOTION_DDOT":0},{"OBJECT_NAME":"HAWK-9B","OBJECT_ID":"2024-066J","EPOCH":"2026-03-09T10:21:05.061312","MEAN_MOTION":14.9877824,"ECCENTRICITY":0.00037519,"INCLINATION":45.6215,"RA_OF_ASC_NODE":73.5456,"ARG_OF_PERICENTER":229.3903,"MEAN_ANOMALY":130.6652,"EPHEMERIS_TYPE":0,"CLASSIFICATION_TYPE":"U","NORAD_CAT_ID":59450,"ELEMENT_SET_NO":999,"REV_AT_EPOCH":10486,"BSTAR":0.00023214291,"MEAN_MOTION_DOT":2.608e-5,"MEAN_MOTION_DDOT":0}]
