STARLINK-5495           
1 55635U 23021H   26068.70642461  .00000104  00000+0  16540-4 0  9998
2 55635  70.0007 184.4286 0003592 276.1302  83.9448 14.98345366168799
HAWK-9B                 
1 59450U 24066J   26068.43130858  .00002608  00000+0  23214-3 0  9995
2 59450  45.6215  73.5456 0003751 229.3903 130.6652 14.98778240104864
